OBJECT_NAME,OBJECT_ID,EPOCH,MEAN_MOTION,ECCENTRICITY,INCLINATION,RA_OF_ASC_NODE,ARG_OF_PERICENTER,MEAN_ANOMALY,EPHEMERIS_TYPE,CLASSIFICATION_TYPE,NORAD_CAT_ID,ELEMENT_SET_NO,REV_AT_EPOCH,BSTAR,MEAN_MOTION_DOT,MEAN_MOTION_DDOT
BEIDOU-2 IGSO-5 (C10),2011-073A,2026-07-02T17:30:18.330912,1.00270596,.01145273,47.6496,271.3544,222.0502,141.5350,0,U,37948,999,5329,0,-.128E-5,0
LUCH 5A (SDCM/PRN 140),2011-074B,2026-07-06T15:13:04.570752,1.00272630,.0002613,8.7999,73.5230,51.3753,194.9372,0,U,37951,999,5324,0,-.39E-6,0
BEIDOU-2 G5 (C05),2012-008A,2026-07-06T20:55:01.348896,1.00268616,.0007451,3.6198,69.5776,273.7217,314.0398,0,U,38091,999,5256,0,.7E-6,0
BEIDOU-2 M3 (C11),2012-018A,2026-07-05T23:34:25.087584,1.86230232,.0020634,55.7406,304.2422,272.8880,86.8970,0,U,38250,999,9629,0,-.61E-6,0
BEIDOU-2 M4 (C12),2012-018B,2026-07-05T21:56:58.485120,1.86229862,.0011775,55.6400,303.4564,273.7013,86.1862,0,U,38251,999,9629,0,-.61E-6,0
SES-5 (EGNOS/PRN 136),2012-036A,2026-07-06T01:50:24.808128,1.00273320,.0002144,0.0475,315.2819,151.6577,209.7104,0,U,38652,999,4464,0,.48E-6,0
BEIDOU-2 M6 (C14),2012-050B,2026-07-06T03:52:05.723904,1.86230944,.00131701,56.5606,62.2672,0.1642,359.9017,0,U,38775,999,9366,0,-.4E-6,0
GSAT-10 (GAGAN/PRN 128),2012-051B,2026-07-06T15:56:37.449312,1.00269440,.0007864,0.0420,240.1474,214.3085,152.3326,0,U,38779,999,5029,0,-.149E-5,0
GPS BIIF-3  (PRN 24),2012-053A,2026-07-05T18:18:56.114208,2.00567790,.0181408,53.5886,142.8384,66.0586,295.8053,0,U,38833,999,9981,0,.67E-6,0
GSAT0103 (GALILEO-FM3),2012-055A,2026-07-05T01:45:34.213824,1.70473389,.0004125,55.8163,101.0549,308.6335,51.3483,0,U,38857,999,8531,0,.1E-7,0
BEIDOU-2 G6 (C02),2012-059A,2026-07-06T20:31:27.602976,1.00269233,.0009169,4.4682,73.3160,330.3538,273.0102,0,U,38953,999,5010,0,-.162E-5,0
LUCH 5B (SDCM/PRN 125),2012-061A,2026-07-06T20:33:39.698208,1.00271933,.000343,10.5233,49.6828,139.1816,28.1429,0,U,38977,999,4980,0,-.128E-5,0
COSMOS 2485 (747),2013-019A,2026-07-06T03:35:29.870592,2.13103463,.0022937,65.4299,72.9682,232.1452,127.7117,0,U,39155,999,10268,0,-.15E-6,0
GPS BIIF-4  (PRN 27),2013-023A,2026-07-06T15:03:59.341824,2.00563377,.0141405,54.4891,268.1812,51.1009,310.2164,0,U,39166,999,9627,0,-.11E-6,0
IRNSS-1A,2013-034A,2026-07-05T17:31:35.683968,1.00280420,.00178584,35.7606,63.6043,181.6646,356.4955,0,U,39199,999,4755,0,.68E-6,0
GPS BIIF-5  (PRN 30),2014-008A,2026-07-04T15:14:44.513088,2.00560936,.0084195,53.6568,148.6082,231.4719,127.7443,0,U,39533,999,9003,0,.67E-6,0
ASTRA 5B (EGNOS/PRN 123),2014-011B,2026-07-06T20:34:27.198336,1.00270600,.0001938,0.0693,307.2462,160.3101,149.3872,0,U,39617,999,4486,0,.152E-5,0
COSMOS 2492 (754),2014-012A,2026-07-04T16:49:03.155808,2.13103564,.0010255,65.2863,313.3408,320.7541,39.1820,0,U,39620,999,9561,0,-.43E-6,0
IRNSS-1B,2014-017A,2026-07-05T17:31:20.708256,1.00272765,.00229695,28.8929,240.0829,195.5386,165.9835,0,U,39635,999,4498,0,.137E-5,0
LUCH 5V (SDCM/PRN 141),2014-023A,2026-07-06T17:39:52.185024,1.00268207,.0002699,5.1783,69.5499,63.0343,151.7961,0,U,39727,999,4455,0,-.256E-5,0
GPS BIIF-6  (PRN 06),2014-026A,2026-07-05T21:47:50.533728,2.00559646,.0038111,56.4884,330.7891,326.0557,33.7048,0,U,39741,999,8891,0,-.68E-6,0
COSMOS 2500 (755),2014-032A,2026-07-06T06:40:21.574272,2.13106116,.00079455,65.2211,313.0331,188.5115,171.4880,0,U,40001,999,9386,0,-.45E-6,0
GPS BIIF-7  (PRN 09),2014-045A,2026-07-06T00:00:01.677888,2.00559674,.00341035,55.3649,87.7155,118.3151,242.0701,0,U,40105,999,8645,0,-.13E-6,0
GSAT0201 (GALILEO 5),2014-050A,2026-07-05T04:52:57.756000,1.85520009,.1677026,48.8557,272.6971,180.0981,179.9258,0,U,40128,999,7865,0,-.32E-6,0
GSAT0202 (GALILEO 6),2014-050B,2026-07-05T23:56:58.854624,1.85520580,.1678484,48.8715,271.7502,180.8497,178.8849,0,U,40129,999,8083,0,-.31E-6,0
IRNSS-1C,2014-061A,2026-07-06T19:19:15.139776,1.00273671,.0022129,6.5665,88.5574,4.5724,204.4639,0,U,40269,999,4288,0,-.15E-5,0
GPS BIIF-8  (PRN 03),2014-068A,2026-07-02T09:05:07.844928,2.00577219,.00673707,56.9979,30.3698,71.1337,289.6561,0,U,40294,999,8551,0,-.59E-6,0
COSMOS 2501 (702K),2014-075A,2026-07-06T12:58:02.119584,2.13101455,.0022679,63.6180,189.7021,212.6524,147.2323,0,U,40315,999,9026,0,.114E-5,0
GPS BIIF-9  (PRN 26),2015-013A,2026-07-06T12:11:37.456224,2.00550209,.0110054,53.1669,203.3785,40.2951,320.5570,0,U,40534,999,8221,0,.96E-6,0
GSAT0203 (GALILEO 7),2015-017A,2026-07-05T23:36:10.930176,1.70476214,.000246,56.7803,341.0841,259.0454,100.9264,0,U,40544,999,6952,0,-.72E-6,0
GSAT0204 (GALILEO 8),2015-017B,2026-07-04T11:30:32.846112,1.70475782,.0002451,56.7872,341.1436,236.0411,123.9323,0,U,40545,999,3254,0,-.73E-6,0
